KUIPER-00167            
1 65780U 25217U   25336.25003472 -.00602626  00000+0 -41705-1 0  9996
2 65780  51.8868 118.5080 0011164 306.5249  43.3273 15.07776643  4539
KUIPER-00168            
1 65781U 25217V   25335.70137832  .00047754  00000+0  12304-2 0  9991
2 65781  51.8706 117.2708 0002101 197.8189 162.2725 15.38730182 10351
KUIPER-00169            
1 65782U 25217W   25335.73140072  .00050224  00000+0  13353-2 0  9996
2 65782  51.8698 117.4634 0003131 286.3277  73.7365 15.37741005 10359
KUIPER-00170            
1 65783U 25217X   25336.25003472 -.00767156  00000+0 -31064-1 0  9996
2 65783  51.8715 115.9191 0007386 319.1116 282.9088 15.26588059  5901
KUIPER-00171            
1 65784U 25217Y   25335.90212319  .00165192  00000+0  14711-2 0  9991
2 65784  51.8568 111.1444 0009216 326.3138  33.7274 15.67378631 10458
KUIPER-00172            
1 65785U 25217Z   25335.77933686  .00037125  00000+0  97226-3 0  9991
2 65785  51.8714 117.0419 0003931 240.4197 119.6398 15.38341575 10364
KUIPER-00173            
1 65786U 25217AA  25336.25003472 -.00726122  00000+0 -22345-1 0  9999
2 65786  51.8708 114.8946 0003512 259.1391 115.1193 15.35652013  5464
KUIPER-00174            
1 65787U 25217AB  25335.90416112  .00048450  00000+0  12712-2 0  9997
2 65787  51.8706 116.3771 0003167 241.9702 118.0964 15.38165674 10387
